{
    "links": {
        "self": "http://www.neowsapp.com/rest/v1/neo/3057546?api_key=iIulBulltgU6a56xZRHN4H3l9WmuAYTsLGpBGhQ2"
    },
    "id": "3057546",
    "neo_reference_id": "3057546",
    "name": "(2000 WL107)",
    "designation": "2000 WL107",
    "nasa_jpl_url": "http://ssd.jpl.nasa.gov/sbdb.cgi?sstr=3057546",
    "absolute_magnitude_h": 24.8,
    "estimated_diameter": {
        "kilometers": {
            "estimated_diameter_min": 0.0291443905,
            "estimated_diameter_max": 0.0651688382
        },
        "meters": {
            "estimated_diameter_min": 29.1443904535,
            "estimated_diameter_max": 65.1688382168
        },
        "miles": {
            "estimated_diameter_min": 0.018109479,
            "estimated_diameter_max": 0.0404940262
        },
        "feet": {
            "estimated_diameter_min": 95.6180819754,
            "estimated_diameter_max": 213.8085311752
        }
    },
    "is_potentially_hazardous_asteroid": false,
    "close_approach_data": [
        {
            "close_approach_date": "1996-01-18",
            "close_approach_date_full": "1996-Jan-18 20:10",
            "epoch_date_close_approach": 821995800000,
            "relative_velocity": {
                "kilometers_per_second": "16.1275959207",
                "kilometers_per_hour": "58059.3453146424",
                "miles_per_hour": "36075.8193150899"
            },
            "miss_distance": {
                "astronomical": "0.262169635",
                "lunar": "101.983988015",
                "kilometers": "39220018.97467745",
                "miles": "24370189.73015081"
            },
            "orbiting_body": "Earth"
        },
        {
            "close_approach_date": "2000-12-03",
            "close_approach_date_full": "2000-Dec-03 10:18",
            "epoch_date_close_approach": 975838680000,
            "relative_velocity": {
                "kilometers_per_second": "8.5908383995",
                "kilometers_per_hour": "30927.0182381068",
                "miles_per_hour": "19216.8464157836"
            },
            "miss_distance": {
                "astronomical": "0.0171325785",
                "lunar": "6.6645730365",
                "kilometers": "2562997.251207795",
                "miles": "1592572.643325771"
            },
            "orbiting_body": "Earth"
        },
        {
            "close_approach_date": "2005-10-21",
            "close_approach_date_full": "2005-Oct-21 05:37",
            "epoch_date_close_approach": 1129873020000,
            "relative_velocity": {
                "kilometers_per_second": "17.2349420562",
                "kilometers_per_hour": "62045.7914021879",
                "miles_per_hour": "38552.8418854317"
            },
            "miss_distance": {
                "astronomical": "0.2944616187",
                "lunar": "114.5455696743",
                "kilometers": "44050830.954272169",
                "miles": "27371917.1023231722"
            },
            "orbiting_body": "Earth"
        },
        {
            "close_approach_date": "2007-07-11",
            "close_approach_date_full": "2007-Jul-11 13:39",
            "epoch_date_close_approach": 1184161140000,
            "relative_velocity": {
                "kilometers_per_second": "10.0072166461",
                "kilometers_per_hour": "36025.9799260288",
                "miles_per_hour": "22385.1429157038"
            },
            "miss_distance": {
                "astronomical": "1.8899751153",
                "lunar": "735.2003198517",
                "kilometers": "282736251.601884411",
                "miles": "175684160.1626544318"
            },
            "orbiting_body": "Juptr"
        }
    ],
    "orbital_data": {
        "orbit_id": "16",
        "orbit_determination_date": "2017-04-06 09:16:39",
        "first_observation_date": "2000-11-29",
        "last_observation_date": "2000-12-20",
        "data_arc_in_days": 21,
        "observations_used": 180,
        "orbit_uncertainty": "7",
        "minimum_orbit_intersection": ".0242593",
        "jupiter_tisserand_invariant": "2.919",
        "epoch_osculation": "2459000.5",
        "eccentricity": ".6528309418711062",
        "semi_major_axis": "2.905545779164649",
        "inclination": "4.903135182489906",
        "ascending_node_longitude": "251.1063770313173",
        "orbital_period": "1809.006013693548",
        "perihelion_distance": "1.008715591502974",
        "perihelion_argument": "184.6226522875264",
        "aphelion_distance": "4.802375966826324",
        "perihelion_time": "2459156.033285360379",
        "mean_anomaly": "329.0482053094924",
        "mean_motion": ".199004313570505",
        "equinox": "J2000",
        "orbit_class": {
            "orbit_class_type": "APO",
            "orbit_class_description": "Near-Earth asteroid orbits which cross the Earth’s orbit similar to that of 1862 Apollo",
            "orbit_class_range": "a (semi-major axis) > 1.0 AU; q (perihelion) < 1.017 AU"
        }
    },
    "is_sentry_object": false
}